[{"OBJECT_NAME":"SITRO-AIS 16","OBJECT_ID":"2024-199C","EPOCH":"2026-03-09T22:02:52.039104","MEAN_MOTION":14.97049887,"ECCENTRICITY":0.00080733,"INCLINATION":97.3322,"RA_OF_ASC_NODE":274.4213,"ARG_OF_PERICENTER":52.0818,"MEAN_ANOMALY":308.1134,"EPHEMERIS_TYPE":0,"CLASSIFICATION_TYPE":"U","NORAD_CAT_ID":61737,"ELEMENT_SET_NO":999,"REV_AT_EPOCH":11696,"BSTAR":0.00041232113,"MEAN_MOTION_DOT":4.701e-5,"MEAN_MOTION_DDOT":0},{"OBJECT_NAME":"STARLINK-35838","OBJECT_ID":"2025-280R","EPOCH":"2026-03-09T22:15:11.610144","MEAN_MOTION":14.98331397,"ECCENTRICITY":0.00026675,"INCLINATION":70.0018,"RA_OF_ASC_NODE":333.7677,"ARG_OF_PERICENTER":270.2189,"MEAN_ANOMALY":89.8665,"EPHEMERIS_TYPE":0,"CLASSIFICATION_TYPE":"U","NORAD_CAT_ID":66836,"ELEMENT_SET_NO":999,"REV_AT_EPOCH":1611,"BSTAR":0.00041565979,"MEAN_MOTION_DOT":4.87e-5,"MEAN_MOTION_DDOT":0}]
